     2.100          NAVIGATION                              RINEX VERSION / TYPE
fic2rin                                 09/08/2009 00:17:24 PGM / RUN BY / DATE
                                                            END OF HEADER
 9 09  9  7 21 59 44.0  .762562267482D-04  .204636307899D-11  .000000000000D+00
     .260000000000D+02  .212500000000D+02  .399480925698D-08  .226536482371D+00
     .936910510063D-06  .207108395407D-01  .105630606413D-04  .515362923050D+04
     .165584000000D+06 -.387430191040D-06  .833367854328D+00 -.949949026108D-07
     .977545249701D+00  .189906250000D+03  .151079008677D+01 -.807640784338D-08
     .391444876679D-09  .100000000000D+01  .154800000000D+04  .000000000000D+00
     .240000000000D+01  .000000000000D+00 -.558793544769D-08  .260000000000D+02
     .158886000000D+06  .400000000000D+01
 6 09  9  7 21 59 44.0  .234975013882D-03  .693489710102D-11  .000000000000D+00
     .700000000000D+01 -.489687500000D+02  .530629245695D-08 -.137567389919D+01
    -.246241688728D-05  .585374690127D-02  .978074967861D-05  .515369850159D+04
     .165584000000D+06 -.113621354103D-06  .291330936511D+01  .167638063431D-07
     .934384258272D+00  .180656250000D+03 -.126384898687D+01 -.839249243814D-08
    -.405016870578D-09  .100000000000D+01  .154800000000D+04  .000000000000D+00
     .240000000000D+01  .000000000000D+00 -.512227416039D-08  .700000000000D+01
     .160386000000D+06  .400000000000D+01
 6 09  9  7 23 59 44.0  .235024839640D-03  .693489710102D-11  .000000000000D+00
     .800000000000D+01 -.505625000000D+02  .527057668353D-08 -.325542225375D+00
    -.284425914288D-05  .585331814364D-02  .948086380959D-05  .515369762230D+04
     .172784000000D+06 -.428408384323D-07  .291324840531D+01 -.279396772385D-07
     .934381404119D+00  .184343750000D+03 -.126380914723D+01 -.844142304772D-08
    -.358229207399D-09  .100000000000D+01  .154800000000D+04  .000000000000D+00
     .240000000000D+01  .000000000000D+00 -.512227416039D-08  .800000000000D+01
     .165606000000D+06  .400000000000D+01
 1 09  9  8  0  0  0.0 -.572768040001D-04  .000000000000D+00  .000000000000D+00
     .700000000000D+01  .159375000000D+01  .620954436673D-08  .104336018151D+00
    -.316649675369D-07  .376616476569D-02  .425055623055D-05  .515370927048D+04
     .172800000000D+06  .000000000000D+00  .190684275017D+01  .763684511185D-07
     .961579702020D+00  .302312500000D+03  .967636697815D+00 -.839463538454D-08
     .195365280605D-09  .100000000000D+01  .154800000000D+04  .000000000000D+00
     .240000000000D+01  .630000000000D+02 -.190921127796D-07  .700000000000D+01
     .165606000000D+06  .400000000000D+01
 2 09  9  8  0  0  0.0  .170730985701D-03  .284217094304D-11  .000000000000D+00
     .500000000000D+02  .816250000000D+02  .489484674716D-08 -.239546606814D+01
     .424683094025D-05  .909202534240D-02  .103078782558D-04  .515371050644D+04
     .172800000000D+06 -.232830643654D-06 -.228983222075D+01 -.335276126862D-07
     .940942479060D+00  .171000000000D+03  .289023014859D+01 -.811819529828D-08
     .166792661870D-09  .100000000000D+01  .154800000000D+04  .000000000000D+00
     .240000000000D+01  .000000000000D+00 -.172294676304D-07  .500000000000D+02
     .165606000000D+06  .400000000000D+01
 3 09  9  8  0  0  0.0  .444152392447D-03  .500222085975D-11  .000000000000D+00
     .109000000000D+03 -.601250000000D+02  .538379568527D-08 -.267092557541D+01
    -.341981649399D-05  .123849465745D-01  .894069671631D-05  .515365401077D+04
     .172800000000D+06  .210478901863D-06  .284483617510D+01 -.160187482834D-06
     .926903076617D+00  .186781250000D+03  .936729710941D+00 -.828534511788D-08
    -.322513433979D-09  .100000000000D+01  .154800000000D+04  .000000000000D+00
     .340000000000D+01  .000000000000D+00 -.465661287308D-08  .109000000000D+03
     .165606000000D+06  .400000000000D+01
 4 09  9  8  0  0  0.0 -.255427323282D-03 -.172803993337D-10  .000000000000D+00
     .570000000000D+02  .782812500000D+02  .506306803996D-08  .449686745338D+00
     .430271029472D-05  .871805951465D-02  .958144664764D-05  .515379981041D+04
     .172800000000D+06  .186264514923D-07 -.227158722141D+01  .987201929092D-07
     .940120744808D+00  .181531250000D+03  .511208517292D+00 -.836284834620D-08
     .102504269714D-09  .100000000000D+01  .154800000000D+04  .000000000000D+00
     .240000000000D+01  .000000000000D+00 -.605359673500D-08  .570000000000D+02
     .165606000000D+06  .400000000000D+01
 5 09  9  8  0  0  0.0 -.986312516034D-04  .123918653117D-10  .000000000000D+00
     .100000000000D+02  .276250000000D+02  .482948688180D-08 -.130560060156D+01
     .138580799103D-05  .231425801758D-02  .275112688541D-05  .515714011955D+04
     .172800000000D+06  .502914190292D-07 -.123172001868D+01  .428408384323D-07
     .961417034307D+00  .327875000000D+03  .842113597000D+00 -.838106339065D-08
    -.103218585183D-09  .100000000000D+01  .154800000000D+04  .000000000000D+00
     .240000000000D+01  .000000000000D+00 -.931322574615D-08  .100000000000D+02
     .165606000000D+06  .400000000000D+01
 7 09  9  8  0  0  0.0  .118939206004D-04 -.682121026330D-12  .000000000000D+00
     .122000000000D+03  .126875000000D+02  .404016828923D-08  .220527953929D+01
     .741332769394D-06  .309937738348D-02  .107754021883D-04  .515365773582D+04
     .172800000000D+06 -.149011611938D-07  .866581226644D+00  .465661287308D-07
     .968646223935D+00  .175406250000D+03  .293064537737D+01 -.778711007868D-08
     .421446126351D-09  .100000000000D+01  .154800000000D+04  .000000000000D+00
     .240000000000D+01  .000000000000D+00 -.107102096081D-07  .122000000000D+03
     .165606000000D+06  .400000000000D+01
 8 09  9  8  0  0  0.0 -.220318790525D-03 -.170530256582D-11  .000000000000D+00
     .150000000000D+02  .190000000000D+02  .363265131451D-08  .152109046517D+01
     .119581818581D-05  .109281393234D-01  .992231070995D-05  .515362531090D+04
     .172800000000D+06 -.558793544769D-08  .929069512000D+00  .175088644028D-06
     .989838695989D+00  .203562500000D+03  .301663012543D+01 -.754710008130D-08
     .333585323739D-09  .100000000000D+01  .154800000000D+04  .000000000000D+00
     .340000000000D+01  .000000000000D+00 -.372529029846D-08  .150000000000D+02
     .165606000000D+06  .400000000000D+01
 9 09  9  8  0  0  0.0  .762711279094D-04  .204636307899D-11  .000000000000D+00
     .290000000000D+02  .896875000000D+01  .389480509141D-08  .127900885290D+01
     .188127160072D-06  .207119437400D-01  .104140490294D-04  .515363255882D+04
     .172800000000D+06 -.242143869400D-06  .833309374177D+00 -.432133674622D-06
     .977548272089D+00  .191125000000D+03  .151085499205D+01 -.794033074665D-08
     .391444876679D-09  .100000000000D+01  .154800000000D+04  .000000000000D+00
     .240000000000D+01  .000000000000D+00 -.558793544769D-08  .290000000000D+02
     .165606000000D+06  .400000000000D+01
10 09  9  8  0  0  0.0 -.230520963669D-04 -.909494701773D-12  .000000000000D+00
     .350000000000D+02  .196875000000D+02  .492056210402D-08 -.137051795267D+01
     .108219683170D-05  .859265832696D-02  .239722430706D-05  .515366143608D+04
     .172800000000D+06  .163912773132D-06 -.120444960038D+01 -.372529029846D-07
     .956510041340D+00  .330968750000D+03  .626130275033D+00 -.844285167866D-08
    -.575023952056D-10  .100000000000D+01  .154800000000D+04  .000000000000D+00
     .240000000000D+01  .000000000000D+00 -.279396772385D-08  .350000000000D+02
     .165606000000D+06  .400000000000D+01
11 09  9  8  0  0  0.0 -.186171382666D-04 -.170530256582D-11  .000000000000D+00
     .810000000000D+02  .706250000000D+02  .608346768656D-08  .204936626106D+01
     .363774597645D-05  .978058890905D-02  .120308250189D-04  .515370653915D+04
     .172800000000D+06 -.286847352982D-06 -.249517028577D+01 -.115483999252D-06
     .889366632159D+00  .108250000000D+03  .723022089709D+00 -.866536094707D-08
     .942896418278D-10  .100000000000D+01  .154800000000D+04  .000000000000D+00
     .240000000000D+01  .000000000000D+00 -.116415321827D-07  .810000000000D+02
     .165606000000D+06  .400000000000D+01
12 09  9  8  0  0  0.0 -.222325790673D-03  .568434188608D-11  .000000000000D+00
     .570000000000D+02  .259375000000D+01  .474698344520D-08  .221167211387D+01
    -.124797224998D-06  .310940272175D-02  .431388616562D-05  .515357370377D+04
     .172800000000D+06  .577419996262D-07  .191961343691D+01  .558793544769D-07
     .967692496437D+00  .299656250000D+03 -.594434909903D+00 -.824177187431D-08
     .161792453591D-09  .100000000000D+01  .154800000000D+04  .000000000000D+00
     .240000000000D+01  .000000000000D+00 -.116415321827D-07  .570000000000D+02
     .165606000000D+06  .400000000000D+01
13 09  9  8  0  0  0.0  .304299872369D-03  .454747350886D-12  .000000000000D+00
     .310000000000D+02 -.885312500000D+02  .359229249054D-08 -.179752158850D+01
    -.465288758278D-05  .401985051576D-02  .882707536221D-05  .515366020203D+04
     .172800000000D+06  .819563865662D-07 -.120195061007D+00  .121071934700D-06
     .994764009080D+00  .228000000000D+03  .165727188533D+01 -.768710591310D-08
    -.467162316328D-09  .100000000000D+01  .154800000000D+04  .000000000000D+00
     .240000000000D+01  .000000000000D+00 -.111758708954D-07  .310000000000D+02
     .165606000000D+06  .400000000000D+01
14 09  9  8  0  0  0.0 -.540451146662D-04  .522959453519D-11  .000000000000D+00
     .430000000000D+02 -.818125000000D+02  .371765485525D-08 -.182670492434D+01
    -.426173210144D-05  .489082466811D-02  .901333987713D-05  .515364356804D+04
     .172800000000D+06  .104308128357D-06 -.140332559929D+00 -.651925802231D-07
     .988191523378D+00  .223156250000D+03 -.215939078496D+01 -.763817530352D-08
    -.420017495415D-09  .100000000000D+01  .154800000000D+04  .000000000000D+00
     .240000000000D+01  .000000000000D+00 -.884756445885D-08  .430000000000D+02
     .165606000000D+06  .400000000000D+01
